[{"OBJECT_NAME":"POLYITAN-1","OBJECT_ID":"2014-033AJ","EPOCH":"2026-03-09T22:27:50.258304","MEAN_MOTION":15.29568085,"ECCENTRICITY":0.00093607,"INCLINATION":98.1053,"RA_OF_ASC_NODE":86.0432,"ARG_OF_PERICENTER":127.248,"MEAN_ANOMALY":232.9614,"EPHEMERIS_TYPE":0,"CLASSIFICATION_TYPE":"U","NORAD_CAT_ID":40042,"ELEMENT_SET_NO":999,"REV_AT_EPOCH":63840,"BSTAR":0.00083772474,"MEAN_MOTION_DOT":0.00024003,"MEAN_MOTION_DDOT":0},{"OBJECT_NAME":"STARLINK-31962","OBJECT_ID":"2024-106Q","EPOCH":"2026-03-09T03:06:48.073248","MEAN_MOTION":15.27567469,"ECCENTRICITY":0.00013547,"INCLINATION":43.0059,"RA_OF_ASC_NODE":335.9848,"ARG_OF_PERICENTER":261.0002,"MEAN_ANOMALY":99.0697,"EPHEMERIS_TYPE":0,"CLASSIFICATION_TYPE":"U","NORAD_CAT_ID":59936,"ELEMENT_SET_NO":999,"REV_AT_EPOCH":10043,"BSTAR":-3.0417763e-5,"MEAN_MOTION_DOT":-1.099e-5,"MEAN_MOTION_DDOT":0}]
